start=new Date('2021-09-16T00:00:00.000Z').valueOf();
sats=[{"CENTER_NAME":"EARTH","SITE":"AFETR","TLE_LINE2":"2 47607  53.0556 154.8600 0001993  64.3814 295.7381 15.06402793 34382","SEMIMAJOR_AXIS":"6925.340","REV_AT_EPOCH":"3438","ECCENTRICITY":"0.00019930","LAUNCH_DATE":"2021-02-04","RA_OF_ASC_NODE":"154.8600","CLASSIFICATION_TYPE":"U","OBJECT_NAME":"STARLINK-2025","OBJECT_TYPE":"PAYLOAD","DECAY_DATE":null,"OBJECT_ID":"2021-009BM","MEAN_MOTION_DDOT":"0.0000000000000","PERIAPSIS":"545.825","EPHEMERIS_TYPE":"0","GP_ID":"184787613","MEAN_ANOMALY":"295.7381","REF_FRAME":"TEME","MEAN_ELEMENT_THEORY":"SGP4","MEAN_MOTION_DOT":"-0.00000072","INCLINATION":"53.0556","NORAD_CAT_ID":"47607","TIME_SYSTEM":"UTC","MEAN_MOTION":"15.06402793","FILE":"3116597","EPOCH":"2021-09-15T22:12:14.788224","APOAPSIS":"548.585","RCS_SIZE":"LARGE","ARG_OF_PERICENTER":"64.3814","BSTAR":"0.00001408400000","ELEMENT_SET_NO":"999","PERIOD":"95.592","TLE_LINE1":"1 47607U 21009BM  21258.92517116 -.00000072  00000-0  14084-4 0  9997","COUNTRY_CODE":"US"},{"APOAPSIS":"548.387","RCS_SIZE":"LARGE","BSTAR":"-0.00164270000000","ELEMENT_SET_NO":"999","ARG_OF_PERICENTER":"74.9558","TLE_LINE1":"1 47620U 21012A   21259.00001157 -.00024677  00000-0 -16427-2 0  9998","PERIOD":"95.591","COUNTRY_CODE":"US","MEAN_ANOMALY":"241.2030","GP_ID":"184787865","REF_FRAME":"TEME","PERIAPSIS":"545.932","EPHEMERIS_TYPE":"0","MEAN_ELEMENT_THEORY":"SGP4","MEAN_MOTION_DOT":"-0.00024677","FILE":"3116597","INCLINATION":"53.0534","MEAN_MOTION":"15.06417650","NORAD_CAT_ID":"47620","TIME_SYSTEM":"UTC","EPOCH":"2021-09-16T00:00:00.999648","OBJECT_TYPE":"PAYLOAD","MEAN_MOTION_DDOT":"0.0000000000000","OBJECT_ID":"2021-012A","DECAY_DATE":null,"TLE_LINE2":"2 47620  53.0534 214.5180 0001773  74.9558 241.2030 15.06417650  3626","CENTER_NAME":"EARTH","SITE":"AFETR","SEMIMAJOR_AXIS":"6925.294","REV_AT_EPOCH":"362","LAUNCH_DATE":"2021-02-16","RA_OF_ASC_NODE":"214.5180","ECCENTRICITY":"0.00017730","OBJECT_NAME":"STARLINK-1528","CLASSIFICATION_TYPE":"U"},{"RCS_SIZE":"MEDIUM","APOAPSIS":"548.427","TLE_LINE1":"1 47621U 21012B   21259.00001157 -.00025911  00000-0 -17255-2 0  9991","COUNTRY_CODE":"US","PERIOD":"95.590","BSTAR":"-0.00172550000000","ELEMENT_SET_NO":"999","ARG_OF_PERICENTER":"76.6831","MEAN_ELEMENT_THEORY":"SGP4","MEAN_MOTION_DOT":"-0.00025911","MEAN_ANOMALY":"279.4583","GP_ID":"184787614","REF_FRAME":"TEME","PERIAPSIS":"545.817","EPHEMERIS_TYPE":"0","EPOCH":"2021-09-16T00:00:00.999648","FILE":"3116597","INCLINATION":"53.0524","NORAD_CAT_ID":"47621","TIME_SYSTEM":"UTC","MEAN_MOTION":"15.06429854","OBJECT_TYPE":"PAYLOAD","MEAN_MOTION_DDOT":"0.0000000000000","DECAY_DATE":null,"OBJECT_ID":"2021-012B","SEMIMAJOR_AXIS":"6925.257","REV_AT_EPOCH":"361","TLE_LINE2":"2 47621  53.0524 214.5091 0001884  76.6831 279.4583 15.06429854  3617","CENTER_NAME":"EARTH","SITE":"AFETR","OBJECT_NAME":"STARLINK-1609","CLASSIFICATION_TYPE":"U","LAUNCH_DATE":"2021-02-16","RA_OF_ASC_NODE":"214.5091","ECCENTRICITY":"0.00018840"},{"REV_AT_EPOCH":"358","SEMIMAJOR_AXIS":"6925.322","TLE_LINE2":"2 47622  53.0524 214.5032 0001538  70.3089 305.8626 15.06408792  3581","SITE":"AFETR","CENTER_NAME":"EARTH","OBJECT_NAME":"STARLINK-1645","CLASSIFICATION_TYPE":"U","RA_OF_ASC_NODE":"214.5032","LAUNCH_DATE":"2021-02-16","ECCENTRICITY":"0.00015380","OBJECT_TYPE":"PAYLOAD","MEAN_MOTION_DDOT":"0.0000000000000","DECAY_DATE":null,"OBJECT_ID":"2021-012C","MEAN_MOTION_DOT":"-0.00028150","MEAN_ELEMENT_THEORY":"SGP4","MEAN_ANOMALY":"305.8626","GP_ID":"184788366","REF_FRAME":"TEME","EPHEMERIS_TYPE":"0","PERIAPSIS":"546.121","EPOCH":"2021-09-16T00:00:00.999648","FILE":"3116597","NORAD_CAT_ID":"47622","TIME_SYSTEM":"UTC","MEAN_MOTION":"15.06408792","INCLINATION":"53.0524","RCS_SIZE":"LARGE","APOAPSIS":"548.252","PERIOD":"95.592","TLE_LINE1":"1 47622U 21012C   21259.00001157 -.00028150  00000-0 -18779-2 0  9992","COUNTRY_CODE":"US","ELEMENT_SET_NO":"999","BSTAR":"-0.00187790000000","ARG_OF_PERICENTER":"70.3089"},{"OBJECT_TYPE":"PAYLOAD","MEAN_MOTION_DDOT":"0.0000000000000","OBJECT_ID":"2021-012D","DECAY_DATE":null,"SEMIMAJOR_AXIS":"6925.343","REV_AT_EPOCH":"362","TLE_LINE2":"2 47623  53.0538 149.5027 0002335  73.2773 240.3878 15.06401733  3621","SITE":"AFETR","CENTER_NAME":"EARTH","OBJECT_NAME":"STARLINK-1655","CLASSIFICATION_TYPE":"U","LAUNCH_DATE":"2021-02-16","RA_OF_ASC_NODE":"149.5027","ECCENTRICITY":"0.00023350","RCS_SIZE":"LARGE","APOAPSIS":"548.825","TLE_LINE1":"1 47623U 21012D   21259.00001157 -.00005348  00000-0 -34031-3 0  9997","COUNTRY_CODE":"US","PERIOD":"95.592","ELEMENT_SET_NO":"999","BSTAR":"-0.00034031000000","ARG_OF_PERICENTER":"73.2773","MEAN_MOTION_DOT":"-0.00005348","MEAN_ELEMENT_THEORY":"SGP4","MEAN_ANOMALY":"240.3878","GP_ID":"184788614","REF_FRAME":"TEME","EPHEMERIS_TYPE":"0","PERIAPSIS":"545.591","EPOCH":"2021-09-16T00:00:00.999648","FILE":"3116597","NORAD_CAT_ID":"47623","TIME_SYSTEM":"UTC","MEAN_MOTION":"15.06401733","INCLINATION":"53.0538"},{"RCS_SIZE":"LARGE","APOAPSIS":"548.371","TLE_LINE1":"1 47624U 21012E   21259.00001157 -.00029352  00000-0 -19594-2 0  9995","PERIOD":"95.592","COUNTRY_CODE":"US","ARG_OF_PERICENTER":"77.7448","BSTAR":"-0.00195940000000","ELEMENT_SET_NO":"999","MEAN_ELEMENT_THEORY":"SGP4","MEAN_MOTION_DOT":"-0.00029352","PERIAPSIS":"546.022","EPHEMERIS_TYPE":"0","REF_FRAME":"TEME","GP_ID":"184787365","MEAN_ANOMALY":"268.4291","EPOCH":"2021-09-16T00:00:00.999648","INCLINATION":"53.0531","NORAD_CAT_ID":"47624","MEAN_MOTION":"15.06405619","TIME_SYSTEM":"UTC","FILE":"3116597","OBJECT_TYPE":"PAYLOAD","DECAY_DATE":null,"OBJECT_ID":"2021-012E","MEAN_MOTION_DDOT":"0.0000000000000","SEMIMAJOR_AXIS":"6925.331","REV_AT_EPOCH":"356","CENTER_NAME":"EARTH","SITE":"AFETR","TLE_LINE2":"2 47624  53.0531 194.5059 0001696  77.7448 268.4291 15.06405619  3567","CLASSIFICATION_TYPE":"U","OBJECT_NAME":"STARLINK-1669","ECCENTRICITY":"0.00016960","LAUNCH_DATE":"2021-02-16","RA_OF_ASC_NODE":"194.5059"},{"MEAN_MOTION_DDOT":"0.0000000000000","OBJECT_ID":"2021-012F","DECAY_DATE":null,"OBJECT_TYPE":"PAYLOAD","OBJECT_NAME":"STARLINK-1704","CLASSIFICATION_TYPE":"U","LAUNCH_DATE":"2021-02-16","RA_OF_ASC_NODE":"214.5080","ECCENTRICITY":"0.00017110","REV_AT_EPOCH":"356","SEMIMAJOR_AXIS":"6925.312","TLE_LINE2":"2 47625  53.0526 214.5080 0001711  70.8147 265.3306 15.06411871  3567","CENTER_NAME":"EARTH","SITE":"AFETR","TLE_LINE1":"1 47625U 21012F   21259.00001157 -.00025416  00000-0 -16929-2 0  9992","PERIOD":"95.591","COUNTRY_CODE":"US","BSTAR":"-0.00169290000000","ELEMENT_SET_NO":"999","ARG_OF_PERICENTER":"70.8147","RCS_SIZE":"LARGE","APOAPSIS":"548.362","EPOCH":"2021-09-16T00:00:00.999648","FILE":"3116597","INCLINATION":"53.0526","NORAD_CAT_ID":"47625","TIME_SYSTEM":"UTC","MEAN_MOTION":"15.06411871","MEAN_ELEMENT_THEORY":"SGP4","MEAN_MOTION_DOT":"-0.00025416","GP_ID":"184788115","REF_FRAME":"TEME","MEAN_ANOMALY":"265.3306","PERIAPSIS":"545.992","EPHEMERIS_TYPE":"0"},{"PERIOD":"95.591","TLE_LINE1":"1 47626U 21012G   21259.00001157 -.00030748  00000-0 -20528-2 0  9997","COUNTRY_CODE":"US","ARG_OF_PERICENTER":"70.5819","BSTAR":"-0.00205280000000","ELEMENT_SET_NO":"999","RCS_SIZE":"LARGE","APOAPSIS":"548.494","EPOCH":"2021-09-16T00:00:00.999648","INCLINATION":"53.0524","NORAD_CAT_ID":"47626","TIME_SYSTEM":"UTC","MEAN_MOTION":"15.06425447","FILE":"3116597","MEAN_ELEMENT_THEORY":"SGP4","MEAN_MOTION_DOT":"-0.00030748","PERIAPSIS":"545.778","EPHEMERIS_TYPE":"0","REF_FRAME":"TEME","GP_ID":"184788867","MEAN_ANOMALY":"345.5784","OBJECT_ID":"2021-012G","DECAY_DATE":null,"MEAN_MOTION_DDOT":"0.0000000000000","OBJECT_TYPE":"PAYLOAD","OBJECT_NAME":"STARLINK-1761","CLASSIFICATION_TYPE":"U","ECCENTRICITY":"0.00019610","LAUNCH_DATE":"2021-02-16","RA_OF_ASC_NODE":"214.5006","SEMIMAJOR_AXIS":"6925.271","REV_AT_EPOCH":"357","CENTER_NAME":"EARTH","SITE":"AFETR","TLE_LINE2":"2 47626  53.0524 214.5006 0001961  70.5819 345.5784 15.06425447  3570"},{"MEAN_MOTION_DDOT":"0.0000000000000","OBJECT_ID":"2021-012H","DECAY_DATE":null,"OBJECT_TYPE":"PAYLOAD","RA_OF_ASC_NODE":"128.4814","LAUNCH_DATE":"2021-02-16","ECCENTRICITY":"0.00040280","CLASSIFICATION_TYPE":"U","OBJECT_NAME":"STARLINK-1972","TLE_LINE2":"2 47627  53.0439 128.4814 0004028   6.2218 322.0837 15.73207612  3689","SITE":"AFETR","CENTER_NAME":"EARTH","SEMIMAJOR_AXIS":"6727.873","REV_AT_EPOCH":"368","ELEMENT_SET_NO":"999","BSTAR":"0.00032338000000","ARG_OF_PERICENTER":"6.2218","COUNTRY_CODE":"US","TLE_LINE1":"1 47627U 21012H   21259.00001157  .00045045  00000-0  32338-3 0  9995","PERIOD":"91.533","APOAPSIS":"352.448","RCS_SIZE":"LARGE","FILE":"3116597","NORAD_CAT_ID":"47627","TIME_SYSTEM":"UTC","MEAN_MOTION":"15.73207612","INCLINATION":"53.0439","EPOCH":"2021-09-16T00:00:00.999648","GP_ID":"184789115","REF_FRAME":"TEME","MEAN_ANOMALY":"322.0837","EPHEMERIS_TYPE":"0","PERIAPSIS":"347.028","MEAN_MOTION_DOT":"0.00045045","MEAN_ELEMENT_THEORY":"SGP4"},{"BSTAR":"-0.00155620000000","ELEMENT_SET_NO":"999","ARG_OF_PERICENTER":"73.2633","TLE_LINE1":"1 47628U 21012J   21259.00001157 -.00023394  00000-0 -15562-2 0  9990","COUNTRY_CODE":"US","PERIOD":"95.591","APOAPSIS":"548.344","RCS_SIZE":"LARGE","FILE":"3116597","INCLINATION":"53.0545","MEAN_MOTION":"15.06413008","NORAD_CAT_ID":"47628","TIME_SYSTEM":"UTC","EPOCH":"2021-09-16T00:00:00.999648","GP_ID":"184787866","MEAN_ANOMALY":"142.9163","REF_FRAME":"TEME","PERIAPSIS":"546.003","EPHEMERIS_TYPE":"0","MEAN_ELEMENT_THEORY":"SGP4","MEAN_MOTION_DOT":"-0.00023394","MEAN_MOTION_DDOT":"0.0000000000000","DECAY_DATE":null,"OBJECT_ID":"2021-012J","OBJECT_TYPE":"PAYLOAD","RA_OF_ASC_NODE":"214.5125","LAUNCH_DATE":"2021-02-16","ECCENTRICITY":"0.00016900","CLASSIFICATION_TYPE":"U","OBJECT_NAME":"STARLINK-1973","TLE_LINE2":"2 47628  53.0545 214.5125 0001690  73.2633 142.9163 15.06413008  3570","CENTER_NAME":"EARTH","SITE":"AFETR","SEMIMAJOR_AXIS":"6925.309","REV_AT_EPOCH":"357"}];
